{
  "type": "FeatureCollection",
  "features": [
    {
      "type": "Feature",
      "properties": {
        "norad_id": 39766,
        "name": "ALOS-2",
        "group": "resource",
        "lat": -23.87031798710348,
        "lon": -106.17312126846964,
        "alt_km": 636.7530606961309,
        "timestamp": "2025-12-08T10:52:02.606433+00:00",
        "meta_object_name": "ALOS-2",
        "meta_object_id": "2014-029A",
        "meta_epoch": "2025-12-07T22:35:09.181536",
        "meta_mean_motion": 14.79460828,
        "meta_eccentricity": 0.00014651,
        "meta_inclination": 97.9232,
        "meta_ra_of_asc_node": 76.8558,
        "meta_arg_of_pericenter": 104.341,
        "meta_mean_anomaly": 255.7964,
        "meta_ephemeris_type": 0,
        "meta_classification_type": "U",
        "meta_norad_cat_id": 39766,
        "meta_element_set_no": 999,
        "meta_rev_at_epoch": 62330,
        "meta_bstar": 0.00038942217,
        "meta_mean_motion_dot": 2.857e-05,
        "meta_mean_motion_ddot": 0,
        "tle_line1": "1 39766U 14029A   25341.94107849  .00002857  00000+0  38942-3 0  9994",
        "tle_line2": "2 39766  97.9232  76.8558 0001465 104.3410 255.7964 14.79460828623304"
      },
      "geometry": {
        "type": "Point",
        "coordinates": [
          -106.17312126846964,
          -23.87031798710348
        ]
      }
    },
    {
      "type": "Feature",
      "properties": {
        "norad_id": 40010,
        "name": "KAZEOSAT 2",
        "group": "resource",
        "lat": 26.101409832976955,
        "lon": -176.7377731882759,
        "alt_km": 617.247768689188,
        "timestamp": "2025-12-08T10:52:02.606443+00:00",
        "meta_object_name": "KAZEOSAT 2",
        "meta_object_id": "2014-033A",
        "meta_epoch": "2025-12-07T21:48:46.962432",
        "meta_mean_motion": 14.85155278,
        "meta_eccentricity": 0.00074616,
        "meta_inclination": 97.5515,
        "meta_ra_of_asc_node": 186.4729,
        "meta_arg_of_pericenter": 224.2478,
        "meta_mean_anomaly": 135.8142,
        "meta_ephemeris_type": 0,
        "meta_classification_type": "U",
        "meta_norad_cat_id": 40010,
        "meta_element_set_no": 999,
        "meta_rev_at_epoch": 62056,
        "meta_bstar": 0.00014804382,
        "meta_mean_motion_dot": 1.218e-05,
        "meta_mean_motion_ddot": 0,
        "tle_line1": "1 40010U 14033A   25341.90887688  .00001218  00000+0  14804-3 0  9996",
        "tle_line2": "2 40010  97.5515 186.4729 0007461 224.2478 135.8142 14.85155278620562"
      },
      "geometry": {
        "type": "Point",
        "coordinates": [
          -176.7377731882759,
          26.101409832976955
        ]
      }
    },
    {
      "type": "Feature",
      "properties": {
        "norad_id": 40011,
        "name": "HODOYOSHI-4",
        "group": "resource",
        "lat": 76.22742527351272,
        "lon": 138.83161133065946,
        "alt_km": 610.3214169214598,
        "timestamp": "2025-12-08T10:52:02.606454+00:00",
        "meta_object_name": "HODOYOSHI-4",
        "meta_object_id": "2014-033B",
        "meta_epoch": "2025-12-07T21:35:54.891168",
        "meta_mean_motion": 14.87454271,
        "meta_eccentricity": 0.00228855,
        "meta_inclination": 97.5416,
        "meta_ra_of_asc_node": 171.0227,
        "meta_arg_of_pericenter": 217.0727,
        "meta_mean_anomaly": 142.891,
        "meta_ephemeris_type": 0,
        "meta_classification_type": "U",
        "meta_norad_cat_id": 40011,
        "meta_element_set_no": 999,
        "meta_rev_at_epoch": 62036,
        "meta_bstar": 0.00028799707,
        "meta_mean_motion_dot": 2.568e-05,
        "meta_mean_motion_ddot": 0,
        "tle_line1": "1 40011U 14033B   25341.89994087  .00002568  00000+0  28800-3 0  9997",
        "tle_line2": "2 40011  97.5416 171.0227 0022885 217.0727 142.8910 14.87454271620366"
      },
      "geometry": {
        "type": "Point",
        "coordinates": [
          138.83161133065946,
          76.22742527351272
        ]
      }
    },
    {
      "type": "Feature",
      "properties": {
        "norad_id": 40013,
        "name": "DEIMOS-2",
        "group": "resource",
        "lat": 28.354450026402045,
        "lon": 42.53014099743593,
        "alt_km": 587.1671453949411,
        "timestamp": "2025-12-08T10:52:02.606464+00:00",
        "meta_object_name": "DEIMOS-2",
        "meta_object_id": "2014-033D",
        "meta_epoch": "2025-12-07T21:19:25.123008",
        "meta_mean_motion": 14.92941863,
        "meta_eccentricity": 0.00010178,
        "meta_inclination": 97.607,
        "meta_ra_of_asc_node": 217.8486,
        "meta_arg_of_pericenter": 94.7881,
        "meta_mean_anomaly": 265.3455,
        "meta_ephemeris_type": 0,
        "meta_classification_type": "U",
        "meta_norad_cat_id": 40013,
        "meta_element_set_no": 999,
        "meta_rev_at_epoch": 60917,
        "meta_bstar": 0.00034022964,
        "meta_mean_motion_dot": 3.477e-05,
        "meta_mean_motion_ddot": 0,
        "tle_line1": "1 40013U 14033D   25341.88848522  .00003477  00000+0  34023-3 0  9994",
        "tle_line2": "2 40013  97.6070 217.8486 0001017  94.7881 265.3455 14.92941863609171"
      },
      "geometry": {
        "type": "Point",
        "coordinates": [
          42.53014099743593,
          28.354450026402045
        ]
      }
    },
    {
      "type": "Feature",
      "properties": {
        "norad_id": 40015,
        "name": "HODOYOSHI-3",
        "group": "resource",
        "lat": 44.844642645241294,
        "lon": 140.82280606198003,
        "alt_km": 628.1550487955956,
        "timestamp": "2025-12-08T10:52:02.606475+00:00",
        "meta_object_name": "HODOYOSHI-3",
        "meta_object_id": "2014-033F",
        "meta_epoch": "2025-12-07T23:20:29.066496",
        "meta_mean_motion": 14.84780707,
        "meta_eccentricity": 0.0031815,
        "meta_inclination": 97.6198,
        "meta_ra_of_asc_node": 148.0151,
        "meta_arg_of_pericenter": 264.2411,
        "meta_mean_anomaly": 95.5177,
        "meta_ephemeris_type": 0,
        "meta_classification_type": "U",
        "meta_norad_cat_id": 40015,
        "meta_element_set_no": 999,
        "meta_rev_at_epoch": 61924,
        "meta_bstar": 0.00029167545,
        "meta_mean_motion_dot": 2.444e-05,
        "meta_mean_motion_ddot": 0,
        "tle_line1": "1 40015U 14033F   25341.97255864  .00002444  00000+0  29168-3 0  9994",
        "tle_line2": "2 40015  97.6198 148.0151 0031815 264.2411  95.5177 14.84780707619242"
      },
      "geometry": {
        "type": "Point",
        "coordinates": [
          140.82280606198003,
          44.844642645241294
        ]
      }
    },
    {
      "type": "Feature",
      "properties": {
        "norad_id": 40053,
        "name": "SPOT 7",
        "group": "resource",
        "lat": 40.74431889586356,
        "lon": -128.3334375959758,
        "alt_km": 686.8680670604253,
        "timestamp": "2025-12-08T10:52:02.606485+00:00",
        "meta_object_name": "SPOT 7",
        "meta_object_id": "2014-034A",
        "meta_epoch": "2025-12-07T22:43:36.523200",
        "meta_mean_motion": 14.60724102,
        "meta_eccentricity": 0.00015245,
        "meta_inclination": 98.0913,
        "meta_ra_of_asc_node": 44.1328,
        "meta_arg_of_pericenter": 94.1586,
        "meta_mean_anomaly": 265.979,
        "meta_ephemeris_type": 0,
        "meta_classification_type": "U",
        "meta_norad_cat_id": 40053,
        "meta_element_set_no": 999,
        "meta_rev_at_epoch": 60921,
        "meta_bstar": 0.0002121585,
        "meta_mean_motion_dot": 9.89e-06,
        "meta_mean_motion_ddot": 0,
        "tle_line1": "1 40053U 14034A   25341.94695050  .00000989  00000+0  21216-3 0  9997",
        "tle_line2": "2 40053  98.0913  44.1328 0001524  94.1586 265.9790 14.60724102609214"
      },
      "geometry": {
        "type": "Point",
        "coordinates": [
          -128.3334375959758,
          40.74431889586356
        ]
      }
    },
    {
      "type": "Feature",
      "properties": {
        "norad_id": 40072,
        "name": "SKYSAT-B",
        "group": "resource",
        "lat": 23.421245168799363,
        "lon": -77.72014504139435,
        "alt_km": 608.9438586773686,
        "timestamp": "2025-12-08T10:52:02.606496+00:00",
        "meta_object_name": "SKYSAT-B",
        "meta_object_id": "2014-037D",
        "meta_epoch": "2025-12-07T20:13:45.681312",
        "meta_mean_motion": 14.87299827,
        "meta_eccentricity": 0.00057461,
        "meta_inclination": 98.3604,
        "meta_ra_of_asc_node": 285.2903,
        "meta_arg_of_pericenter": 164.8707,
        "meta_mean_anomaly": 195.268,
        "meta_ephemeris_type": 0,
        "meta_classification_type": "U",
        "meta_norad_cat_id": 40072,
        "meta_element_set_no": 999,
        "meta_rev_at_epoch": 61751,
        "meta_bstar": 0.00036192076,
        "meta_mean_motion_dot": 3.206e-05,
        "meta_mean_motion_ddot": 0,
        "tle_line1": "1 40072U 14037D   25341.84288983  .00003206  00000+0  36192-3 0  9997",
        "tle_line2": "2 40072  98.3604 285.2903 0005746 164.8707 195.2680 14.87299827617517"
      },
      "geometry": {
        "type": "Point",
        "coordinates": [
          -77.72014504139435,
          23.421245168799363
        ]
      }
    }
  ]
}